[{"OBJECT_NAME":"STARLINK-4781","OBJECT_ID":"2022-114AV","EPOCH":"2026-03-09T21:57:19.428480","MEAN_MOTION":15.08841404,"ECCENTRICITY":0.0001384,"INCLINATION":53.2173,"RA_OF_ASC_NODE":283.2726,"ARG_OF_PERICENTER":85.0547,"MEAN_ANOMALY":275.0603,"EPHEMERIS_TYPE":0,"CLASSIFICATION_TYPE":"U","NORAD_CAT_ID":53861,"ELEMENT_SET_NO":999,"REV_AT_EPOCH":19314,"BSTAR":1.2202575e-5,"MEAN_MOTION_DOT":-9.4e-7,"MEAN_MOTION_DDOT":0},{"OBJECT_NAME":"SEDSAT 1 (SO-33)","OBJECT_ID":"1998-061B","EPOCH":"2026-03-09T01:12:01.146528","MEAN_MOTION":14.33274004,"ECCENTRICITY":0.03368459,"INCLINATION":31.4338,"RA_OF_ASC_NODE":325.4833,"ARG_OF_PERICENTER":271.633,"MEAN_ANOMALY":84.5745,"EPHEMERIS_TYPE":0,"CLASSIFICATION_TYPE":"U","NORAD_CAT_ID":25509,"ELEMENT_SET_NO":999,"REV_AT_EPOCH":43145,"BSTAR":6.9265016e-5,"MEAN_MOTION_DOT":4.4e-6,"MEAN_MOTION_DDOT":0}]
